{"type": "FeatureCollection", "features": [ {"type": "Feature", "properties": {"norad_id": 34908, "name": "COSMOS 2251 DEB", "group": "cosmos-2251-debris", "lat": -72.1459824769742, "lon": -77.11228233050777, "alt_km": 800.5721589987343, "timestamp": "2025-12-03T15:48:03.461646+00:00", "meta": {"OBJECT_NAME": "COSMOS 2251 DEB", "OBJECT_ID": "1993-036ADD", "EPOCH": "2025-12-02T22:43:00.720768", "MEAN_MOTION": 14.37350026, "ECCENTRICITY": 0.00398708, "INCLINATION": 74.0586, "RA_OF_ASC_NODE": 41.6515, "ARG_OF_PERICENTER": 61.1367, "MEAN_ANOMALY": 119.0003, "EPHEMERIS_TYPE": 0, "CLASSIFICATION_TYPE": "U", "NORAD_CAT_ID": 34908, "ELEMENT_SET_NO": 999, "REV_AT_EPOCH": 87138, "BSTAR": 0.00065874656, "MEAN_MOTION_DOT": 1.959e-05, "MEAN_MOTION_DDOT": 0}, "tle": {"line1": "1 34908U 93036ADD 25336.94653612  .00001959  00000+0  65875-3 0  9997", "line2": "2 34908  74.0586  41.6515 0039870  61.1367 119.0003 14.37350026871381"}}, "geometry": {"type": "Point", "coordinates": [-77.11228233050777, -72.1459824769742]}}, {"type": "Feature", "properties": {"norad_id": 34909, "name": "COSMOS 2251 DEB", "group": "cosmos-2251-debris", "lat": 23.463397100228715, "lon": -92.72510639856249, "alt_km": 621.5862728691045, "timestamp": "2025-12-03T15:48:03.461654+00:00", "meta": {"OBJECT_NAME": "COSMOS 2251 DEB", "OBJECT_ID": "1993-036ADE", "EPOCH": "2025-12-02T16:20:39.593184", "MEAN_MOTION": 14.77677518, "ECCENTRICITY": 0.00852182, "INCLINATION": 74.0135, "RA_OF_ASC_NODE": 96.3432, "ARG_OF_PERICENTER": 234.3085, "MEAN_ANOMALY": 125.0138, "EPHEMERIS_TYPE": 0, "CLASSIFICATION_TYPE": "U", "NORAD_CAT_ID": 34909, "ELEMENT_SET_NO": 999, "REV_AT_EPOCH": 66703, "BSTAR": 0.00090528683, "MEAN_MOTION_DOT": 6.857e-05, "MEAN_MOTION_DDOT": 0}, "tle": {"line1": "1 34909U 93036ADE 25336.68101381  .00006857  00000+0  90529-3 0  9996", "line2": "2 34909  74.0135  96.3432 0085218 234.3085 125.0138 14.77677518667038"}}, "geometry": {"type": "Point", "coordinates": [-92.72510639856249, 23.463397100228715]}}, {"type": "Feature", "properties": {"norad_id": 34910, "name": "COSMOS 2251 DEB", "group": "cosmos-2251-debris", "lat": 12.715963819295059, "lon": 119.49776049047064, "alt_km": 1368.4668674383738, "timestamp": "2025-12-03T15:48:03.461663+00:00", "meta": {"OBJECT_NAME": "COSMOS 2251 DEB", "OBJECT_ID": "1993-036ADF", "EPOCH": "2025-12-02T16:32:32.334432", "MEAN_MOTION": 13.37643089, "ECCENTRICITY": 0.0468107, "INCLINATION": 73.8742, "RA_OF_ASC_NODE": 117.2836, "ARG_OF_PERICENTER": 237.8282, "MEAN_ANOMALY": 146.7075, "EPHEMERIS_TYPE": 0, "CLASSIFICATION_TYPE": "U", "NORAD_CAT_ID": 34910, "ELEMENT_SET_NO": 999, "REV_AT_EPOCH": 81390, "BSTAR": 0.001305183, "MEAN_MOTION_DOT": 1.267e-05, "MEAN_MOTION_DDOT": 0}, "tle": {"line1": "1 34910U 93036ADF 25336.68926313  .00001267  00000+0  13052-2 0  9993", "line2": "2 34910  73.8742 117.2836 0468107 237.8282 146.7075 13.37643089813901"}}, "geometry": {"type": "Point", "coordinates": [119.49776049047064, 12.715963819295059]}}, {"type": "Feature", "properties": {"norad_id": 34911, "name": "COSMOS 2251 DEB", "group": "cosmos-2251-debris", "lat": 43.31498475207461, "lon": 66.39840696505192, "alt_km": 705.6766998961984, "timestamp": "2025-12-03T15:48:03.461687+00:00", "meta": {"OBJECT_NAME": "COSMOS 2251 DEB", "OBJECT_ID": "1993-036ADG", "EPOCH": "2025-12-03T06:00:27.635904", "MEAN_MOTION": 14.59344505, "ECCENTRICITY": 0.00831696, "INCLINATION": 74.0412, "RA_OF_ASC_NODE": 262.8282, "ARG_OF_PERICENTER": 30.7099, "MEAN_ANOMALY": 119.8806, "EPHEMERIS_TYPE": 0, "CLASSIFICATION_TYPE": "U", "NORAD_CAT_ID": 34911, "ELEMENT_SET_NO": 999, "REV_AT_EPOCH": 88448, "BSTAR": 0.00027458803, "MEAN_MOTION_DOT": 1.332e-05, "MEAN_MOTION_DDOT": 0}, "tle": {"line1": "1 34911U 93036ADG 25337.25031986  .00001332  00000+0  27459-3 0  9991", "line2": "2 34911  74.0412 262.8282 0083169  30.7099 119.8806 14.59344505884488"}}, "geometry": {"type": "Point", "coordinates": [66.39840696505192, 43.31498475207461]}}, {"type": "Feature", "properties": {"norad_id": 34913, "name": "COSMOS 2251 DEB", "group": "cosmos-2251-debris", "lat": -42.02017679743565, "lon": 134.09633413804002, "alt_km": 796.6994062921876, "timestamp": "2025-12-03T15:48:03.461696+00:00", "meta": {"OBJECT_NAME": "COSMOS 2251 DEB", "OBJECT_ID": "1993-036ADJ", "EPOCH": "2025-12-02T16:08:10.454208", "MEAN_MOTION": 14.34632081, "ECCENTRICITY": 0.00200026, "INCLINATION": 74.0276, "RA_OF_ASC_NODE": 300.9473, "ARG_OF_PERICENTER": 54.1655, "MEAN_ANOMALY": 119.3628, "EPHEMERIS_TYPE": 0, "CLASSIFICATION_TYPE": "U", "NORAD_CAT_ID": 34913, "ELEMENT_SET_NO": 999, "REV_AT_EPOCH": 65043, "BSTAR": 7.0680463e-05, "MEAN_MOTION_DOT": 1.74e-06, "MEAN_MOTION_DDOT": 0}, "tle": {"line1": "1 34913U 93036ADJ 25336.67234322  .00000174  00000+0  70680-4 0  9995", "line2": "2 34913  74.0276 300.9473 0020002  54.1655 119.3628 14.34632081650434"}}, "geometry": {"type": "Point", "coordinates": [134.09633413804002, -42.02017679743565]}}, {"type": "Feature", "properties": {"norad_id": 34918, "name": "COSMOS 2251 DEB", "group": "cosmos-2251-debris", "lat": -44.884884963293565, "lon": 167.47767081480657, "alt_km": 689.3053378975355, "timestamp": "2025-12-03T15:48:03.461705+00:00", "meta": {"OBJECT_NAME": "COSMOS 2251 DEB", "OBJECT_ID": "1993-036ADP", "EPOCH": "2025-12-02T07:49:20.078112", "MEAN_MOTION": 14.60858458, "ECCENTRICITY": 0.0034182, "INCLINATION": 74.0712, "RA_OF_ASC_NODE": 333.4916, "ARG_OF_PERICENTER": 302.4495, "MEAN_ANOMALY": 120.4085, "EPHEMERIS_TYPE": 0, "CLASSIFICATION_TYPE": "U", "NORAD_CAT_ID": 34918, "ELEMENT_SET_NO": 999, "REV_AT_EPOCH": 65184, "BSTAR": 0.0024749, "MEAN_MOTION_DOT": 0.00012194, "MEAN_MOTION_DDOT": 0}, "tle": {"line1": "1 34918U 93036ADP 25336.32592683  .00012194  00000+0  24749-2 0  9997", "line2": "2 34918  74.0712 333.4916 0034182 302.4495 120.4085 14.60858458651845"}}, "geometry": {"type": "Point", "coordinates": [167.47767081480657, -44.884884963293565]}}, {"type": "Feature", "properties": {"norad_id": 34924, "name": "COSMOS 2251 DEB", "group": "cosmos-2251-debris", "lat": -71.22614670900388, "lon": -15.883118870863418, "alt_km": 684.7537939717313, "timestamp": "2025-12-03T15:48:03.461715+00:00", "meta": {"OBJECT_NAME": "COSMOS 2251 DEB", "OBJECT_ID": "1993-036ADV", "EPOCH": "2025-12-02T04:22:00.331392", "MEAN_MOTION": 14.59847465, "ECCENTRICITY": 0.0055391, "INCLINATION": 74.0396, "RA_OF_ASC_NODE": 109.5877, "ARG_OF_PERICENTER": 196.6336, "MEAN_ANOMALY": 226.616, "EPHEMERIS_TYPE": 0, "CLASSIFICATION_TYPE": "U", "NORAD_CAT_ID": 34924, "ELEMENT_SET_NO": 999, "REV_AT_EPOCH": 87569, "BSTAR": 0.0014998, "MEAN_MOTION_DOT": 7.306e-05, "MEAN_MOTION_DDOT": 0}, "tle": {"line1": "1 34924U 93036ADV 25336.18194828  .00007306  00000+0  14998-2 0  9991", "line2": "2 34924  74.0396 109.5877 0055391 196.6336 226.6160 14.59847465875698"}}, "geometry": {"type": "Point", "coordinates": [-15.883118870863418, -71.22614670900388]}}, {"type": "Feature", "properties": {"norad_id": 34944, "name": "COSMOS 2251 DEB", "group": "cosmos-2251-debris", "lat": 54.75977169766214, "lon": -87.1946149572261, "alt_km": 715.4861044852896, "timestamp": "2025-12-03T15:48:03.461724+00:00", "meta": {"OBJECT_NAME": "COSMOS 2251 DEB", "OBJECT_ID": "1993-036ADX", "EPOCH": "2025-11-29T02:52:15.324384", "MEAN_MOTION": 14.1413005, "ECCENTRICITY": 0.02197265, "INCLINATION": 73.749, "RA_OF_ASC_NODE": 256.6053, "ARG_OF_PERICENTER": 106.5861, "MEAN_ANOMALY": 255.9534, "EPHEMERIS_TYPE": 0, "CLASSIFICATION_TYPE": "U", "NORAD_CAT_ID": 34944, "ELEMENT_SET_NO": 999, "REV_AT_EPOCH": 63890, "BSTAR": 0.00066557018, "MEAN_MOTION_DOT": 1.572e-05, "MEAN_MOTION_DDOT": 0}, "tle": {"line1": "1 34944U 93036ADX 25333.11962181  .00001572  00000+0  66557-3 0  9996", "line2": "2 34944  73.7490 256.6053 0219726 106.5861 255.9534 14.14130050638905"}}, "geometry": {"type": "Point", "coordinates": [-87.1946149572261, 54.75977169766214]}}, {"type": "Feature", "properties": {"norad_id": 34946, "name": "COSMOS 2251 DEB", "group": "cosmos-2251-debris", "lat": 36.24419577285682, "lon": 11.639389075851987, "alt_km": 690.9652286773089, "timestamp": "2025-12-03T15:48:03.461734+00:00", "meta": {"OBJECT_NAME": "COSMOS 2251 DEB", "OBJECT_ID": "1993-036ADZ", "EPOCH": "2025-11-30T18:38:49.789824", "MEAN_MOTION": 14.61892999, "ECCENTRICITY": 0.00492329, "INCLINATION": 74.0241, "RA_OF_ASC_NODE": 5.0332, "ARG_OF_PERICENTER": 145.8487, "MEAN_ANOMALY": 214.5864, "EPHEMERIS_TYPE": 0, "CLASSIFICATION_TYPE": "U", "NORAD_CAT_ID": 34946, "ELEMENT_SET_NO": 999, "REV_AT_EPOCH": 88034, "BSTAR": 0.00052129859, "MEAN_MOTION_DOT": 2.623e-05, "MEAN_MOTION_DDOT": 0}, "tle": {"line1": "1 34946U 93036ADZ 25334.77696516  .00002623  00000+0  52130-3 0  9997", "line2": "2 34946  74.0241   5.0332 0049232 145.8487 214.5864 14.61892999880347"}}, "geometry": {"type": "Point", "coordinates": [11.639389075851987, 36.24419577285682]}}, {"type": "Feature", "properties": {"norad_id": 34949, "name": "COSMOS 2251 DEB", "group": "cosmos-2251-debris", "lat": -73.1639596119369, "lon": 18.690727979643533, "alt_km": 599.8903538843515, "timestamp": "2025-12-03T15:48:03.461743+00:00", "meta": {"OBJECT_NAME": "COSMOS 2251 DEB", "OBJECT_ID": "1993-036AEC", "EPOCH": "2025-12-03T03:11:45.204576", "MEAN_MOTION": 14.73888049, "ECCENTRICITY": 0.00804743, "INCLINATION": 74.0167, "RA_OF_ASC_NODE": 128.421, "ARG_OF_PERICENTER": 275.6913, "MEAN_ANOMALY": 83.5088, "EPHEMERIS_TYPE": 0, "CLASSIFICATION_TYPE": "U", "NORAD_CAT_ID": 34949, "ELEMENT_SET_NO": 999, "REV_AT_EPOCH": 88220, "BSTAR": 0.00069404332, "MEAN_MOTION_DOT": 4.76e-05, "MEAN_MOTION_DDOT": 0}, "tle": {"line1": "1 34949U 93036AEC 25337.13316209  .00004760  00000+0  69404-3 0  9997", "line2": "2 34949  74.0167 128.4210 0080474 275.6913  83.5088 14.73888049882204"}}, "geometry": {"type": "Point", "coordinates": [18.690727979643533, -73.1639596119369]}}]}